NORAD_CAT_ID,OBJECT_NAME,OBJECT_TYPE,EPOCH,MEAN_MOTION,ECCENTRICITY,INCLINATION,RA_OF_ASC_NODE,ARG_OF_PERICENTER,MEAN_ANOMALY,BSTAR,MEAN_MOTION_DOT,MEAN_MOTION_DDOT,TLE_LINE0,TLE_LINE1,TLE_LINE2,SEMIMAJOR_AXIS,PERIOD,APOGEE,PERIGEE,DECAYED
52336.0,STARLINK-3823,PAYLOAD,2022-05-26 06:00:00,15.57612698,0.0001094,53.2175,306.3729,62.9127,318.3361,-0.010343,-0.00712436,0.0,0 STARLINK-3823,1 52336U 22045F   22146.25001157 -.00712436  00000-0 -10343-1 0  9995,2 52336  53.2175 306.3729 0001094  62.9127 318.3361 15.57612698  6691,6772.705,92.449,395.311,393.83,0.0
52336.0,STARLINK-3823,PAYLOAD,2022-05-26 14:00:01,15.57104663,0.0001291,53.2176,304.7622,54.3706,36.7661,-0.010592,-0.0071551,0.0,0 STARLINK-3823,1 52336U 22045F   22146.58334491 -.00715510  00000-0 -10592-1 0  9993,2 52336  53.2176 304.7622 0001291  54.3706  36.7661 15.57104663  1308,6774.179,92.479,396.918,395.169,0.0
52336.0,STARLINK-3823,PAYLOAD,2022-05-26 19:46:28,15.57705957,0.0001593,53.2122,303.6068,78.1835,281.9357,-0.0043642,-0.00317117,0.0,0 STARLINK-3823,1 52336U 22045F   22146.82394346 -.00317117  00000-0 -43642-2 0  9999,2 52336  53.2122 303.6068 0001593  78.1835 281.9357 15.57705957  6789,6772.435,92.444,395.379,393.221,0.0
52336.0,STARLINK-3823,PAYLOAD,2022-05-26 22:00:00,15.56590712,0.0001256,53.2173,303.153,68.461,91.9525,-0.010681,-0.00708369,0.0,0 STARLINK-3823,1 52336U 22045F   22146.91667824 -.00708369  00000-0 -10681-1 0  9992,2 52336  53.2173 303.1530 0001256  68.4610  91.9525 15.56590712  1302,6775.67,92.51,398.386,396.684,0.0
52336.0,STARLINK-3823,PAYLOAD,2022-05-27 02:00:01,15.56336457,0.0001158,53.2168,302.3478,57.1768,317.6451,-0.01081,-0.00709972,0.0,0 STARLINK-3823,1 52336U 22045F   22147.08334491 -.00709972  00000-0 -10810-1 0  9997,2 52336  53.2168 302.3478 0001158  57.1768 317.6451 15.56336457  6820,6776.406999999997,92.525,399.057,397.48800000000006,0.0
52336.0,STARLINK-3823,PAYLOAD,2022-05-27 14:16:17,15.56536143,0.0001622,53.2118,299.8892,15.0782,345.0279,-0.0042667,-0.00297484,0.0,0 STARLINK-3823,1 52336U 22045F   22147.59464446 -.00297484  00000-0 -42667-2 0  9993,2 52336  53.2118 299.8892 0001622  15.0782 345.0279 15.56536143  6906,6775.828,92.513,398.792,396.594,0.0
52336.0,STARLINK-3823,PAYLOAD,2022-05-27 20:26:23,15.56161312,0.0001457,53.2122,298.6492,66.4636,293.653,-0.0047806,-0.00327418,0.0,0 STARLINK-3823,1 52336U 22045F   22147.85166257 -.00327418  00000-0 -47806-2 0  9992,2 52336  53.2122 298.6492 0001457  66.4636 293.6530 15.56161312  6942,6776.916,92.535,399.768,397.794,0.0
52336.0,STARLINK-3823,PAYLOAD,2022-05-28 06:00:02,15.54552304,0.0001183,53.2173,296.7223,57.3637,14.0925,-0.011569,-0.00711024,0.0,0 STARLINK-3823,1 52336U 22045F   22148.25002315 -.00711024  00000-0 -11569-1 0  9997,2 52336  53.2173 296.7223 0001183  57.3637  14.0925 15.54552304  7009,6781.590999999999,92.631,404.259,402.654,0.0
52336.0,STARLINK-3823,PAYLOAD,2022-05-28 13:24:45,15.55024481,9.44e-05,53.2123,295.2443,59.9665,300.1441,-0.0043213,-0.00285287,0.0,0 STARLINK-3823,1 52336U 22045F   22148.55886422 -.00285287  00000-0 -43213-2 0  9998,2 52336  53.2123 295.2443 0000944  59.9665 300.1441 15.55024481  7053,6780.218000000003,92.603,402.724,401.443,0.0
52336.0,STARLINK-3823,PAYLOAD,2022-05-28 19:35:13,15.54686301,0.0003798,53.2124,294.0078,39.8113,320.3177,-0.0047288,-0.00307608,0.0,0 STARLINK-3823,1 52336U 22045F   22148.81612633 -.00307608  00000-0 -47288-2 0  9996,2 52336  53.2124 294.0078 0003798  39.8113 320.3177 15.54686301  7098,6781.2019999999975,92.623,405.642,400.491,0.0
52336.0,STARLINK-3823,PAYLOAD,2022-05-29 06:00:02,15.53021985,0.0001255,53.2174,291.9134,67.2805,200.9742,-0.012208,-0.00709511,0.0,0 STARLINK-3823,1 52336U 22045F   22149.25002315 -.00709511  00000-0 -12208-1 0  9997,2 52336  53.2174 291.9134 0001255  67.2805 200.9742 15.53021985  7159,6786.045999999999,92.722,408.762,407.059,0.0
52336.0,STARLINK-3823,PAYLOAD,2022-05-29 12:34:28,15.53636958,7.55e-05,53.2124,290.6077,355.2902,4.8102,-0.0048363999999999,-0.00302754,0.0,0 STARLINK-3823,1 52336U 22045F   22149.52393786 -.00302754  00000-0 -48364-2 0  9993,2 52336  53.2124 290.6077 0000755 355.2902   4.8102 15.53636958  7207,6784.255,92.686,406.632,405.608,0.0
52336.0,STARLINK-3823,PAYLOAD,2022-05-29 14:07:07,15.53603685,0.0001097,53.2124,290.2989,352.1090000000001,7.9904,-0.0047298,-0.00295995,0.0,0 STARLINK-3823,1 52336U 22045F   22149.58828502 -.00295995  00000-0 -47298-2 0  9991,2 52336  53.2124 290.2989 0001097 352.1090   7.9904 15.53603685  7215,6784.352,92.688,406.961,405.472,0.0
52336.0,STARLINK-3823,PAYLOAD,2022-05-29 18:45:18,15.53258162,0.0001673,53.2117,289.3717,44.2075,315.9069,-0.0049138,-0.00303398,0.0,0 STARLINK-3823,1 52336U 22045F   22149.78145903 -.00303398  00000-0 -49138-2 0  9992,2 52336  53.2117 289.3717 0001673  44.2075 315.9069 15.53258162  7240,6785.358,92.708,408.358,406.087,0.0
52336.0,STARLINK-3823,PAYLOAD,2022-05-29 22:00:00,15.52004069,0.0001162,53.2172,288.7158,57.7882,338.5347,-0.012715,-0.00711924,0.0,0 STARLINK-3823,1 52336U 22045F   22149.91667824 -.00711924  00000-0 -12715-1 0  9996,2 52336  53.2172 288.7158 0001162  57.7882 338.5347 15.52004069  1306,6789.012,92.783,411.666,410.089,0.0
52336.0,STARLINK-3823,PAYLOAD,2022-05-30 06:00:00,15.51493366,0.0001395999999999,53.2173,287.1159,47.7165,51.7566,-0.012954,-0.00721185,0.0,0 STARLINK-3823,1 52336U 22045F   22150.25001157 -.00721185  00000-0 -12954-1 0  9991,2 52336  53.2173 287.1159 0001396  47.7165  51.7566 15.51493366  7318,6790.502,92.814,413.315,411.419,0.0
52336.0,STARLINK-3823,PAYLOAD,2022-05-30 11:45:33,15.52184283,0.000161,53.2123,285.9758,330.0962,29.9956,-0.0052141,-0.00309408,0.0,0 STARLINK-3823,1 52336U 22045F   22150.48996841 -.00309408  00000-0 -52141-2 0  9992,2 52336  53.2123 285.9758 0001610 330.0962  29.9956 15.52184283  7356,6788.486999999999,92.772,411.445,409.259,0.0
52336.0,STARLINK-3823,PAYLOAD,2022-05-30 13:18:54,15.52201061,0.0001723,53.2129,285.6696,52.1966,307.9201,-0.0034984,-0.00210468,0.0,0 STARLINK-3823,1 52336U 22045F   22150.55479979 -.00210468  00000-0 -34984-2 0  9990,2 52336  53.2129 285.6696 0001723  52.1966 307.9201 15.52201061  7368,6788.438,92.771,411.473,409.133,0.0
52336.0,STARLINK-3823,PAYLOAD,2022-05-30 21:02:49,15.51883648,0.0001252,53.2126,284.1271,47.2647,312.8469,-0.0038692,-0.00229523,0.0,0 STARLINK-3823,1 52336U 22045F   22150.87696032 -.00229523  00000-0 -38692-2 0  9998,2 52336  53.2126 284.1271 0001252  47.2647 312.8469 15.51883648  7419,6789.364000000001,92.79,412.079,410.379,0.0
52336.0,STARLINK-3823,PAYLOAD,2022-05-31 04:00:00,15.49947701,0.0001441999999999,53.2173,282.7282,48.1625,131.8273,-0.0017232,-0.00097263,0.0,0 STARLINK-3823,1 52336U 22045F   22151.16667824 -.00097263  00000-0 -17232-2 0  9999,2 52336  53.2173 282.7282 0001442  48.1625 131.8273 15.49947701  7458,6795.016,92.906,417.861,415.901,0.0
52336.0,STARLINK-3823,PAYLOAD,2022-05-31 06:00:02,15.49891247,0.0001441999999999,53.2173,282.3295,55.3846,229.9272,-0.00017268,-0.00010241,0.0,0 STARLINK-3823,1 52336U 22045F   22151.25002315 -.00010241  00000-0 -17268-3 0  9998,2 52336  53.2173 282.3295 0001442  55.3846 229.9272 15.49891247  1302,6795.181,92.91,418.026,416.066,0.0
52336.0,STARLINK-3823,PAYLOAD,2022-05-31 12:31:14,15.50867813,0.0001557,53.2127,281.0443,48.909,311.2054,-0.0032126,-0.00184891,0.0,0 STARLINK-3823,1 52336U 22045F   22151.52169655 -.00184891  00000-0 -32126-2 0  9991,2 52336  53.2127 281.0443 0001557  48.9090 311.2054 15.50867813  7514,6792.328,92.851,415.251,413.135,0.0
52336.0,STARLINK-3823,PAYLOAD,2022-05-31 22:00:00,15.49849097,0.000164,53.2131,279.1518,53.619,353.4056,0.00010445,5.473e-05,0.0,0 STARLINK-3823,1 52336U 22045F   22151.91667824  .00005473  00000-0  10445-3 0  9992,2 52336  53.2131 279.1518 0001640  53.6190 353.4056 15.49849097  7575,6795.304,92.912,418.284,416.055,0.0
52336.0,STARLINK-3823,PAYLOAD,2022-06-01 14:00:01,15.4989018,0.0001511,53.2136,275.9656,53.9017,114.8614,0.00078948,0.0004462,0.0,0 STARLINK-3823,1 52336U 22045F   22152.58334491  .00044620  00000-0  78948-3 0  9996,2 52336  53.2136 275.9656 0001511  53.9017 114.8614 15.49890180  7674,6795.184,92.91,418.076,416.022,0.0
52336.0,STARLINK-3823,PAYLOAD,2022-06-01 20:00:01,15.49910746,0.0001522,53.2136,274.7714,46.7297,77.7349,0.0007928,0.00044844,0.0,0 STARLINK-3823,1 52336U 22045F   22152.83334491  .00044844  00000-0  79280-3 0  9992,2 52336  53.2136 274.7714 0001522  46.7297  77.7349 15.49910746  1305,6795.124,92.909,418.023,415.955,0.0
52336.0,STARLINK-3823,PAYLOAD,2022-06-02 17:07:53,15.49901226,0.0001559,53.2147,270.5619,61.4167,298.7,0.00015362,8.281e-05,0.0,0 STARLINK-3823,1 52336U 22045F   22153.71381483  .00008281  00000-0  15362-3 0  9999,2 52336  53.2147 270.5619 0001559  61.4167 298.7000 15.49901226  7853,6795.151999999999,92.909,418.076,415.957,0.0
52336.0,STARLINK-3823,PAYLOAD,2022-06-03 10:09:18,15.49915801,0.0001603,53.2147,267.1717,49.0795,311.0354,0.00019091,0.0001041,0.0,0 STARLINK-3823,1 52336U 22045F   22154.42312571  .00010410  00000-0  19091-3 0  9990,2 52336  53.2147 267.1717 0001603  49.0795 311.0354 15.49915801  7960,6795.109,92.908,418.06300000000016,415.885,0.0
52336.0,STARLINK-3823,PAYLOAD,2022-06-03 16:20:44,15.49910589,0.0001207,53.2132,265.9368,60.3364,299.7766,6.2146e-05,3.08e-05,0.0,0 STARLINK-3823,1 52336U 22045F   22154.68107232  .00003080  00000-0  62146-4 0  9999,2 52336  53.2132 265.9368 0001207  60.3364 299.7766 15.49910589  8003,6795.124,92.909,417.81,416.169,0.0
52336.0,STARLINK-3823,PAYLOAD,2022-06-04 00:05:00,15.49925917,0.0001218,53.2134,264.3956,32.4944,327.6140000000001,-3.7919e-05,-2.606e-05,0.0,0 STARLINK-3823,1 52336U 22045F   22155.00347792 -.00002606  00000-0 -37919-4 0  9998,2 52336  53.2134 264.3956 0001218  32.4944 327.6140 15.49925917  8050,6795.08,92.908,417.772,416.117,0.0
